const debrisTLE = [
    {
        name: 'IRIDIUM 33 DEB',
        TLE: `1 34361U 97051FD  21270.37102071  .00086641  00000-0  39498-2 0  9992
2 34361  86.3290 247.1478 0010933 148.2024 211.9881 15.20230388672408`,
    },
    {
        name: 'IRIDIUM 33 DEB',
        TLE: `1 34363U 97051FF  21270.58248807  .00004180  00000-0  91663-3 0  9996
2 34363  86.3525 316.1645 0038612  50.8569 309.6060 14.56963159662220`,
    },
    {
        name: 'IRIDIUM 33 DEB',
        TLE: `1 34366U 97051FJ  21269.71314279  .00000752  00000-0  24239-3 0  9995
2 34366  86.3803 346.3281 0022792 195.1542 290.8085 14.37860469659907`,
    },
    {
        name: 'IRIDIUM 33 DEB',
        TLE: `1 34367U 97051FK  21270.58217308  .00003934  00000-0  74015-3 0  9990
2 34367  86.4134 332.2509 0025314 247.8327 112.0199 14.64192647665478`,
    },
    {
        name: 'IRIDIUM 33 DEB',
        TLE: `1 34368U 97051FL  21270.49845116  .00005850  00000-0  11436-2 0  9991
2 34368  86.3796 343.0745 0086524  93.1677 328.7524 14.60326174661108`,
    },
    {
        name: 'IRIDIUM 33 DEB',
        TLE: `1 34375U 97051FT  21270.45508479  .00000270  00000-0  12627-3 0  9998
2 34375  86.4269  80.0451 0106438 313.9616  74.1865 14.13852402649659`,
    },
    {
        name: 'IRIDIUM 33 DEB',
        TLE: `1 34376U 97051FU  21270.56216617  .00001003  00000-0  32729-3 0  9991
2 34376  86.3091 318.0842 0037770 241.4028 118.3367 14.37295817657917`,
    },
    {
        name: 'IRIDIUM 33 DEB',
        TLE: `1 34378U 97051FW  21270.59262469  .00002744  00000-0  59455-3 0  9990
2 34378  86.3554 329.1524 0056458 128.0978 232.5341 14.56842051660566`,
    },
    {
        name: 'IRIDIUM 33 DEB',
        TLE: `1 34486U 97051GB  21270.60699825  .00000921  00000-0  21975-3 0  9993
2 34486  86.4124 326.1071 0018631   9.1777 154.5486 14.52560388664722`,
    },
    {
        name: 'IRIDIUM 33 DEB',
        TLE: `1 34487U 97051GC  21270.58820859  .00000137  00000-0  36815-4 0  9993
2 34487  86.3427 311.7164 0033248 155.9774 356.2046 14.40065004661079`,
    },
    {
        name: 'IRIDIUM 33 DEB',
        TLE: `1 34488U 97051GD  21270.48032974  .00001201  00000-0  26610-3 0  9990
2 34488  86.3415 281.2093 0022988 310.3716  49.5484 14.56210283665992`,
    },
    {
        name: 'IRIDIUM 33 DEB',
        TLE: `1 34489U 97051GE  21270.08345474  .00003465  00000-0  10194-2 0  9992
2 34489  86.4124  27.4558 0073258 311.5512  47.9419 14.41921923656309`,
    },
    {
        name: 'IRIDIUM 33 DEB',
        TLE: `1 34490U 97051GF  21270.40966566  .00016149  00000-0  14383-2 0  9998
2 34490  86.3197 243.6999 0039844 317.5892 193.9903 14.95320810670270`,
    },
    {
        name: 'IRIDIUM 33 DEB',
        TLE: `1 34492U 97051GH  21269.62679870  .00001283  00000-0  71307-3 0  9994
2 34492  86.4963 210.2155 0307955 334.2935 202.0673 13.89225370635053`,
    },
    {
        name: 'IRIDIUM 33 DEB',
        TLE: `1 34493U 97051GJ  21270.33687519  .00006427  00000-0  10409-2 0  9994
2 34493  86.2632 238.4474 0062847  95.2550 265.5841 14.69778223665374`,
    },
    {
        name: 'IRIDIUM 33 DEB',
        TLE: `1 34496U 97051GM  21270.57521469  .00005055  00000-0  13342-2 0  9999
2 34496  86.3869  22.9345 0082459  38.5325 322.1724 14.46738447484002`,
    },
    {
        name: 'IRIDIUM 33 DEB',
        TLE: `1 34497U 97051GN  21269.52260510  .00000471  00000-0  20286-3 0  9993
2 34497  86.2851 344.3726 0089011 220.2374 204.7246 14.20500883650059`,
    },
    {
        name: 'IRIDIUM 33 DEB',
        TLE: `1 34503U 97051GU  21269.96979872  .00000848  00000-0  17128-3 0  9996
2 34503  86.3150 255.8574 0014287  89.3524 270.9323 14.60139002667392`,
    },
    {
        name: 'IRIDIUM 33 DEB',
        TLE: `1 34508U 97051GZ  21270.58633024  .00000671  00000-0  26779-3 0  9993
2 34508  86.3808  24.8868 0080510 113.5953 247.3718 14.25256291653375`,
    },
    {
        name: 'IRIDIUM 33 DEB',
        TLE: `1 34511U 97051HC  21270.44775462  .00001834  00000-0  45987-3 0  9999
2 34511  86.3892 334.9836 0031871  36.1758 336.7507 14.50584900661884`,
    },
    {
        name: 'IRIDIUM 33 DEB',
        TLE: `1 34517U 97051HJ  21270.45111605  .00010952  00000-0  12946-2 0  9998
2 34517  86.3580 265.3816 0004515 228.4197 291.9140 14.84554094669754`,
    },
    {
        name: 'IRIDIUM 33 DEB',
        TLE: `1 34518U 97051HK  21270.05888336  .00012352  00000-0  14292-2 0  9999
2 34518  86.3788 286.8078 0026283  83.7221 276.6995 14.85187044669137`,
    },
    {
        name: 'IRIDIUM 33 DEB',
        TLE: `1 34520U 97051HM  21270.41873138  .00020526  00000-0  19407-2 0  9991
2 34520  86.3546 267.5366 0009625 337.1473  22.9326 14.93548500669759`,
    },
    {
        name: 'IRIDIUM 33 DEB',
        TLE: `1 34521U 97051HN  21270.50738901  .00000520  00000-0  14647-3 0  9994
2 34521  86.3887 333.0157 0007995  41.3082 318.8723 14.43978033661813`,
    },
    {
        name: 'IRIDIUM 33 DEB',
        TLE: `1 34522U 97051HP  21270.42158876  .00006989  00000-0  12793-2 0  9997
2 34522  86.3644 321.7767 0050582  52.0248 320.8656 14.64879876662445`,
    },
    {
        name: 'IRIDIUM 33 DEB',
        TLE: `1 34524U 97051HR  21270.52723468  .00001431  00000-0  33902-3 0  9998
2 34524  86.3421 306.9018 0039953  30.7045 329.6486 14.52882779662756`,
    },
    {
        name: 'IRIDIUM 33 DEB',
        TLE: `1 34525U 97051HS  21270.53162307  .00000292  00000-0  90991-4 0  9995
2 34525  86.3787 338.8568 0006968 100.7201 325.2447 14.37373169660273`,
    },
    {
        name: 'IRIDIUM 33 DEB',
        TLE: `1 34526U 97051HT  21270.46146056  .00010916  00000-0  14562-2 0  9993
2 34526  86.3370 271.7353 0018642  85.9323 274.4028 14.79386446667613`,
    },
    {
        name: 'IRIDIUM 33 DEB',
        TLE: `1 34529U 97051HW  21270.46089157  .00000138  00000-0  39059-4 0  9999
2 34529  86.3671 328.6673 0005865 192.9253 167.1796 14.37985061660335`,
    },
    {
        name: 'IRIDIUM 33 DEB',
        TLE: `1 34532U 97051HZ  21270.54472188  .00008993  00000-0  14046-2 0  9996
2 34532  86.3329 299.4694 0036035 280.3098  79.4057 14.72301153663925`,
    },
    {
        name: 'IRIDIUM 33 DEB',
        TLE: `1 34535U 97051JC  21269.97769905  .00010660  00000-0  12662-2 0  9996
2 34535  86.3312 240.5904 0020106 310.7934  49.1545 14.84211421671331`,
    },
    {
        name: 'IRIDIUM 33 DEB',
        TLE: `1 34538U 97051JF  21270.61742819  .00000665  00000-0  23980-3 0  9997
2 34538  86.2785 310.8353 0042431 302.6757 222.0684 14.31773004656986`,
    },
    {
        name: 'IRIDIUM 33 DEB',
        TLE: `1 34540U 97051JH  21270.50003307  .00000793  00000-0  18575-3 0  9996
2 34540  86.3189 271.9850 0026241   5.5876 157.2127 14.53166031665856`,
    },
    {
        name: 'IRIDIUM 33 DEB',
        TLE: `1 34643U 97051JU  21270.58471195  .00002218  00000-0  50279-3 0  9993
2 34643  86.3817 322.5640 0034046 357.6390   2.4651 14.55330440659701`,
    },
    {
        name: 'IRIDIUM 33 DEB',
        TLE: `1 34648U 97051JZ  21270.44656080  .00001010  00000-0  67460-3 0  9990
2 34648  86.4133 164.7695 0235024 337.0926  21.9891 13.87737718635079`,
    },
    {
        name: 'IRIDIUM 33 DEB',
        TLE: `1 34651U 97051KC  21269.90891608  .00001042  00000-0  56126-3 0  9992
2 34651  86.2918  58.9742 0193073 352.0036   7.8075 14.02903394642006`,
    },
    {
        name: 'IRIDIUM 33 DEB',
        TLE: `1 34652U 97051KD  21270.06862322  .00000603  00000-0  15797-3 0  9994
2 34652  86.3323 293.4694 0039106  59.2680   2.4836 14.47156925662341`,
    },
    {
        name: 'IRIDIUM 33 DEB',
        TLE: `1 34690U 97051KM  21270.51144771  .00000938  00000-0  27252-3 0  9997
2 34690  86.3889 336.4548 0011380 106.4905 318.3737 14.43295593658496`,
    },
    {
        name: 'IRIDIUM 33 DEB',
        TLE: `1 34693U 97051KQ  21270.35720177  .00001437  00000-0  32520-3 0  9991
2 34693  86.3339 279.9775 0023997 318.6791 106.3601 14.55354255662864`,
    },
    {
        name: 'IRIDIUM 33 DEB',
        TLE: `1 34696U 97051KT  21270.49990920  .00001526  00000-0  69194-3 0  9990
2 34696  86.2074 341.9229 0144434 111.2448 311.7019 14.15881408647333`,
    },
    {
        name: 'IRIDIUM 33 DEB',
        TLE: `1 34702U 97051KZ  21269.91248491  .00001520  00000-0  29801-3 0  9997
2 34702  86.3069 245.5018 0040064 190.9362 169.0983 14.61605389667197`,
    },
    {
        name: 'IRIDIUM 33 DEB',
        TLE: `1 34705U 97051LC  21269.98144426  .00015469  00000-0  21825-2 0  9994
2 34705  86.4562 357.2606 0080759 206.6240 153.0822 14.74868667664857`,
    },
    {
        name: 'IRIDIUM 33 DEB',
        TLE: `1 34706U 97051LD  21269.86702845  .00021081  00000-0  17046-2 0  9994
2 34706  86.3174 204.3988 0024102 283.5967 137.7007 14.99452572673373`,
    },
    {
        name: 'IRIDIUM 33 DEB',
        TLE: `1 34764U 97051LH  21270.22168757  .00016620  00000-0  15540-2 0  9998
2 34764  86.3551 254.6178 0004559 135.0816 225.0783 14.94023056669613`,
    },
    {
        name: 'IRIDIUM 33 DEB',
        TLE: `1 34765U 97051LJ  21270.47519944  .00000354  00000-0  11745-3 0  9995
2 34765  86.3422 328.3361 0016729 207.6542 216.0805 14.34874795655368`,
    },
    {
        name: 'IRIDIUM 33 DEB',
        TLE: `1 34773U 97051LS  21270.47867738  .00001929  00000-0  44460-3 0  9990
2 34773  86.4122 335.2559 0013960 256.4771 103.4881 14.54811636664361`,
    },
    {
        name: 'IRIDIUM 33 DEB',
        TLE: `1 34774U 97051LT  21269.67203642  .00004401  00000-0  89070-3 0  9993
2 34774  86.4218 330.4025 0024828 157.2481 328.9599 14.60931512666718`,
    },
    {
        name: 'IRIDIUM 33 DEB',
        TLE: `1 34775U 97051LU  21269.49255966  .00001075  00000-0  30258-3 0  9998
2 34775  86.3822 339.6795 0029626 105.2266 316.4923 14.44734882658569`,
    },
    {
        name: 'IRIDIUM 33 DEB',
        TLE: `1 34825U 97051LZ  21270.42080069  .00002454  00000-0  55565-3 0  9999
2 34825  86.3703 313.1222 0010274 276.8625 145.1072 14.55783758660527`,
    }